{"fetched_at":"2026-03-29T16:36:15Z","count":15609,"tles":[{"name":"STARLINK-1807","line1":"1 46706U 20073AN  26087.85713020  .00040759  00000+0  16013-2 0  9991","line2":"2 46706  53.0620 139.9145 0001192 301.5264  58.5617 15.25320008300244","category":"Starlink"}]}