{
  "norad_id": 46706,
  "name": "STARLINK-1807",
  "history": [
    {
      "epoch": "2026-03-28T20:34:16.049280Z",
      "apogee_km": 490.6436150513646,
      "perigee_km": 489.00574355008393,
      "latitude_deg": 2.1071602264625763e-05,
      "longitude_deg": 5.076081769963297,
      "height_km": 490.28489773717183,
      "semi_major_axis_km": 6867.9616793007235,
      "eccentricity": 0.00011924,
      "inclination_deg": 53.062,
      "raan_deg": 139.9145,
      "arg_perigee_deg": 301.5264,
      "mean_anomaly_deg": 58.5617,
      "mean_motion_rev_day": 15.25320008
    }
  ]
}